UMBRA-10                
1 60547U 24149CH  26199.49938489  .00007926  00000+0  38304-3 0  9997
2 60547  97.6973 287.2914 0001906 159.5140 200.6171 15.18907444105487
ICEYE-X33               
1 60548U 24149CJ  26199.23659017  .00002528  00000+0  20328-3 0  9997
2 60548  97.7373 278.2235 0001875  71.2698 288.8729 15.00900394104868
ICEYE-X40               
1 60549U 24149CK  26199.16276579  .00001523  00000+0  13359-3 0  9998
2 60549  97.6805 275.1599 0003649 355.3306   4.7882 14.98084258104717
SATELIOT_1              
1 60550U 24149CL  26199.21826061  .00001253  00000+0  11052-3 0  9991
2 60550  97.6734 274.5996 0005315 343.9851  16.1203 14.98170195104714
BRO-14                  
1 60551U 24149CM  26199.15936948  .00001019  00000+0  95346-4 0  9990
2 60551  97.6864 274.3801 0006488   9.4662 350.6680 14.96241713104626
SATELIOT_3              
1 60552U 24149CN  26199.19417645  .00000425  00000+0  40742-4 0  9993
2 60552  97.6813 275.3977 0004763 351.9839   8.1306 14.98166514104729
BRO-15                  
1 60553U 24149CP  26199.14208707  .00000467  00000+0  46479-4 0  9995
2 60553  97.6789 273.9359 0007417 354.8840   5.2304 14.96223786104632
UM5-RIBAT               
1 60554U 24149CQ  26199.46753977  .00001055  00000+0  86803-4 0  9994
2 60554  97.6600 276.8430 0000428 308.7094  51.4092 15.01225819104881
UM5-EOSAT               
1 60555U 24149CR  26199.15722732  .00001696  00000+0  13485-3 0  9992
2 60555  97.6778 277.5478 0009015  27.8658 332.3048 15.01739504104865
LASARSAT                
1 62391U 24247Q   26198.96507674  .00021749  00000+0  40983-3 0  9999
2 62391  44.9738  89.0178 0007822 183.9645 176.1185 15.48162669 88087
CROCUBE                 
1 62394U 24247T   26199.05143081  .00024720  00000+0  43051-3 0  9992
2 62394  44.9717  85.3241 0007952 190.6183 169.4541 15.50337911 88137
TEVEL2-4                
1 63213U 25052D   26199.66508883  .00010338  00000+0  30055-3 0  9990
2 63213  97.3855  96.1261 0003268  45.1827 314.9681 15.35641020 74948
TEVEL2-5                
1 63214U 25052E   26199.23309628  .00009887  00000+0  28934-3 0  9990
2 63214  97.3855  95.6318 0003315  47.1094 313.0428 15.35444756 74875
TEVEL2-6                
1 63215U 25052F   26199.24614078  .00010380  00000+0  30399-3 0  9998
2 63215  97.3858  95.6297 0003376  49.4265 310.7272 15.35408471 74872
TEVEL2-1                
1 63217U 25052H   26199.22116709  .00009517  00000+0  28401-3 0  9997
2 63217  97.3830  95.1910 0004044  53.7107 306.4510 15.34835684 74851
TEVEL2-3                
1 63218U 25052J   26199.27979625  .00009943  00000+0  29602-3 0  9994
2 63218  97.3839  95.2758 0003778  55.7421 304.4179 15.34900151 74868
TEVEL2-2                
1 63219U 25052K   26199.28646794  .00009641  00000+0  28757-3 0  9999
2 63219  97.3833  95.2592 0004077  53.6322 306.5297 15.34848337 74860
TEVEL2-9                
1 63237U 25052AD  26199.50072565  .00008821  00000+0  28075-3 0  9995
2 63237  97.3892  94.7793 0007381  47.4946 312.6919 15.32793889 74820
TEVEL2-7                
1 63238U 25052AE  26199.22140916  .00008564  00000+0  27537-3 0  9997
2 63238  97.3896  94.4025 0007522  48.3385 311.8500 15.32471582 74778
TEVEL2-8                
1 63239U 25052AF  26199.22996041  .00008487  00000+0  27307-3 0  9995
2 63239  97.3899  94.3878 0007555  49.4075 310.7823 15.32456829 74774
FORESAIL-1 PRIME        
1 66778U 25276DS  26199.55396324  .00002308  00000+0  11370-3 0  9997
2 66778  97.4187 272.2539 0002604  37.5376 322.6040 15.18954100 35161
